{
    "links": {
        "self": "http://www.neowsapp.com/rest/v1/neo/3910107?api_key=iIulBulltgU6a56xZRHN4H3l9WmuAYTsLGpBGhQ2"
    },
    "id": "3910107",
    "neo_reference_id": "3910107",
    "name": "(2019 XC3)",
    "designation": "2019 XC3",
    "nasa_jpl_url": "http://ssd.jpl.nasa.gov/sbdb.cgi?sstr=3910107",
    "absolute_magnitude_h": 20.2,
    "estimated_diameter": {
        "kilometers": {
            "estimated_diameter_min": 0.2424124811,
            "estimated_diameter_max": 0.5420507863
        },
        "meters": {
            "estimated_diameter_min": 242.4124811008,
            "estimated_diameter_max": 542.0507863358
        },
        "miles": {
            "estimated_diameter_min": 0.1506280858,
            "estimated_diameter_max": 0.3368146392
        },
        "feet": {
            "estimated_diameter_min": 795.3165644948,
            "estimated_diameter_max": 1778.3819018419
        }
    },
    "is_potentially_hazardous_asteroid": false,
    "close_approach_data": [
        {
            "close_approach_date": "1970-12-16",
            "close_approach_date_full": "1970-Dec-16 07:38",
            "epoch_date_close_approach": 30181080000,
            "relative_velocity": {
                "kilometers_per_second": "17.6803247997",
                "kilometers_per_hour": "63649.1692788379",
                "miles_per_hour": "39549.1185443979"
            },
            "miss_distance": {
                "astronomical": "0.3227908771",
                "lunar": "125.5656511919",
                "kilometers": "48288827.669591777",
                "miles": "30005286.1502774426"
            },
            "orbiting_body": "Earth"
        },
        {
            "close_approach_date": "2019-08-27",
            "close_approach_date_full": "2019-Aug-27 03:58",
            "epoch_date_close_approach": 1566878280000,
            "relative_velocity": {
                "kilometers_per_second": "15.8626441944",
                "kilometers_per_hour": "57105.5190998792",
                "miles_per_hour": "35483.1487984777"
            },
            "miss_distance": {
                "astronomical": "0.4928841264",
                "lunar": "191.7319251696",
                "kilometers": "73734415.466250768",
                "miles": "45816441.2341178784"
            },
            "orbiting_body": "Earth"
        },
        {
            "close_approach_date": "2019-12-13",
            "close_approach_date_full": "2019-Dec-13 17:10",
            "epoch_date_close_approach": 1576257000000,
            "relative_velocity": {
                "kilometers_per_second": "14.0655908386",
                "kilometers_per_hour": "50636.1270188948",
                "miles_per_hour": "31463.3201468239"
            },
            "miss_distance": {
                "astronomical": "0.4055514182",
                "lunar": "157.7595016798",
                "kilometers": "60669628.338199234",
                "miles": "37698358.9532240692"
            },
            "orbiting_body": "Earth"
        },
        {
            "close_approach_date": "2023-12-19",
            "close_approach_date_full": "2023-Dec-19 07:14",
            "epoch_date_close_approach": 1702970040000,
            "relative_velocity": {
                "kilometers_per_second": "19.6653421603",
                "kilometers_per_hour": "70795.2317771682",
                "miles_per_hour": "43989.4038784299"
            },
            "miss_distance": {
                "astronomical": "0.33081802",
                "lunar": "128.68820978",
                "kilometers": "49489671.1496174",
                "miles": "30751455.68842412"
            },
            "orbiting_body": "Earth"
        }
    ],
    "orbital_data": {
        "orbit_id": "13",
        "orbit_determination_date": "2020-01-14 05:04:41",
        "first_observation_date": "2019-12-07",
        "last_observation_date": "2020-01-14",
        "data_arc_in_days": 38,
        "observations_used": 74,
        "orbit_uncertainty": "6",
        "minimum_orbit_intersection": ".297428",
        "jupiter_tisserand_invariant": "3.052",
        "epoch_osculation": "2459000.5",
        "eccentricity": ".5858733399688774",
        "semi_major_axis": "2.54852767202386",
        "inclination": "26.99773414936071",
        "ascending_node_longitude": "284.5857629599265",
        "orbital_period": "1486.046698452055",
        "perihelion_distance": "1.055413252812134",
        "perihelion_argument": "107.9790611503515",
        "aphelion_distance": "4.041642091235587",
        "perihelion_time": "2458771.292354639190",
        "mean_anomaly": "55.52635217711751",
        "mean_motion": ".2422534906709156",
        "equinox": "J2000",
        "orbit_class": {
            "orbit_class_type": "AMO",
            "orbit_class_description": "Near-Earth asteroid orbits similar to that of 1221 Amor",
            "orbit_class_range": "1.017 AU < q (perihelion) < 1.3 AU"
        }
    },
    "is_sentry_object": false
}